0 OPS 4682 DEB
1 38407U 65027DL  13282.17278792  .00000035  00000-0  10000-3 0   242
2 38407 090.2794 249.1727 0027142 053.2841 307.1353 12.94735064276712
0 OPS 4682 DEB
1 38407U 65027DL  13287.19592172  .00000035  00000-0  10000-3 0   251
2 38407 090.2789 249.3243 0031196 044.8902 315.4492 12.94736374277362
0 OPS 4682 DEB
1 38407U 65027DL  13293.14641314  .00000035  00000-0  10000-3 0   267
2 38407 090.2789 249.4760 0031196 029.2977 330.9884 12.94736707278139
